[{"OBJECT_NAME":"HULIANWANG DIGUI-32","OBJECT_ID":"2025-121C","EPOCH":"2026-03-09T22:59:34.933344","MEAN_MOTION":13.24425526,"ECCENTRICITY":0.00019991,"INCLINATION":86.4919,"RA_OF_ASC_NODE":46.9111,"ARG_OF_PERICENTER":78.7667,"MEAN_ANOMALY":281.3692,"EPHEMERIS_TYPE":0,"CLASSIFICATION_TYPE":"U","NORAD_CAT_ID":64285,"ELEMENT_SET_NO":999,"REV_AT_EPOCH":3702,"BSTAR":0.0001516168,"MEAN_MOTION_DOT":8.0e-7,"MEAN_MOTION_DDOT":0},{"OBJECT_NAME":"SL-24 R\/B","OBJECT_ID":"2008-049B","EPOCH":"2026-03-09T23:11:18.773664","MEAN_MOTION":13.92004353,"ECCENTRICITY":0.03370079,"INCLINATION":98.7223,"RA_OF_ASC_NODE":206.5014,"ARG_OF_PERICENTER":287.7212,"MEAN_ANOMALY":184.4966,"EPHEMERIS_TYPE":0,"CLASSIFICATION_TYPE":"U","NORAD_CAT_ID":33397,"ELEMENT_SET_NO":999,"REV_AT_EPOCH":88574,"BSTAR":6.7365503e-5,"MEAN_MOTION_DOT":9.0e-7,"MEAN_MOTION_DDOT":0}]
